OBJECT_NAME,OBJECT_ID,EPOCH,MEAN_MOTION,ECCENTRICITY,INCLINATION,RA_OF_ASC_NODE,ARG_OF_PERICENTER,MEAN_ANOMALY,EPHEMERIS_TYPE,CLASSIFICATION_TYPE,NORAD_CAT_ID,ELEMENT_SET_NO,REV_AT_EPOCH,BSTAR,MEAN_MOTION_DOT,MEAN_MOTION_DDOT
CENTISPACE-1 S4,2022-108B,2026-06-18T15:03:49.430016,14.61935935,.0008652,53.5314,46.8136,347.4143,12.6615,0,U,53758,999,20177,.13612E-3,.497E-5,0
BLUEWALKER-3,2022-111AL,2026-06-18T00:35:07.792800,15.38281356,.000626,53.2296,30.0410,163.4096,196.7116,0,U,53807,999,21033,.16911692E-3,.6086E-4,0
YUNHAI-1 03,2022-115A,2026-06-18T17:22:22.814688,14.32719155,.0005721,98.5532,167.8515,52.0404,308.1296,0,U,53877,999,19573,.12113E-3,.286E-5,0
CENTISPACE-1 S5,2022-126A,2026-06-18T15:43:19.990272,14.63015788,.0014624,54.9975,207.0862,75.1319,285.1294,0,U,54020,999,19725,.1041E-3,.348E-5,0
CENTISPACE-1 S6,2022-126B,2026-06-18T15:34:32.945952,14.62291583,.0016469,54.9978,208.9826,75.2959,284.9858,0,U,54021,999,19721,.64945E-4,.141E-5,0
OTB-3-GAZELLE,2022-127A,2026-06-18T10:43:33.175200,14.42674885,.0013076,98.3943,161.1320,179.2898,180.8313,0,U,54023,999,19454,.46091E-4,.11E-5,0
ASO-S,2022-129A,2026-06-18T16:49:16.377600,14.52062358,.0015773,98.2747,174.7597,88.4775,271.8227,0,U,54029,999,19564,.47371E-4,.147E-5,0
HJ-2E,2022-132A,2026-06-18T17:32:41.982144,15.22334779,.0020296,97.3795,174.0796,9.8892,350.2739,0,U,54035,999,20465,.27818E-3,.638E-4,0
COSMOS 2561,2022-137A,2026-06-18T18:34:54.831936,15.51735174,.0010447,96.9170,228.7160,30.9625,329.2242,0,U,54109,999,20659,.18424E-3,.10915E-3,0
GONETS-M 23,2022-139A,2026-06-18T17:04:52.031712,12.42890867,.0020958,82.5072,347.3467,216.2259,143.7403,0,U,54150,999,16583,.31072E-4,.14E-6,0
GONETS-M 24,2022-139B,2026-06-18T16:26:07.033632,12.42891510,.0016056,82.4989,346.4222,226.5486,133.4258,0,U,54151,999,16583,.84699E-4,.22E-6,0
GONETS-M 25,2022-139C,2026-06-18T18:02:25.946016,12.42890011,.0019984,82.5054,347.0678,225.2323,134.7131,0,U,54152,999,16584,-.39573E-4,.4E-7,0
SKIF-D,2022-139D,2026-06-18T06:08:45.730176,5.00427453,.0007383,89.9507,96.6675,198.8114,161.2131,0,U,54153,999,6416,0,.12E-6,0
MATS,2022-147A,2026-06-18T01:06:15.403104,15.05357387,.00121583,97.6816,170.6392,188.4466,171.6558,0,U,54227,999,19789,.13991304E-3,.1944E-4,0
JILIN-1 GAOFEN 03D54,2022-155D,2026-06-17T02:05:46.563936,15.98577285,.00058926,97.6131,321.1856,262.8455,97.2152,0,U,54254,999,20028,.75735162E-3,.354208E-2,.54092919E-4
EOS-6 (OCEANSAT-3),2022-158A,2026-06-18T18:04:30.952128,14.47001296,.0001141,98.3542,267.9265,48.2594,311.8696,0,U,54361,999,18806,.73105E-4,.222E-5,0
DONGPO 09,2022-167D,2026-06-18T17:06:10.385280,15.36362878,.0003578,97.6904,340.7869,113.1428,247.0193,0,U,54685,999,19568,.2638E-3,.9271E-4,0
DONGPO 08,2022-167E,2026-06-18T16:41:54.757824,15.33670810,.0008775,97.6868,337.9402,155.4948,204.6713,0,U,54686,999,19555,.26524E-3,.8561E-4,0
2022-167F,2022-167F,2026-06-18T18:43:23.231136,15.93379105,.000187,97.6098,357.8978,232.4100,127.7005,0,U,54687,999,19708,.60663E-3,.213818E-2,.19516E-4
DONGPO 10,2022-167H,2026-06-18T16:50:20.068224,15.34479540,.000632,97.6949,339.9014,105.9174,254.2765,0,U,54689,999,19559,.26477E-3,.8764E-4,0
JILIN-1 GAOFEN 03D48,2022-167P,2026-06-18T16:45:56.791008,15.35247789,.0007667,97.6884,339.2766,110.4942,249.7124,0,U,54695,999,19562,.26999E-3,.9163E-4,0
STAR VIBE,2023-001A,2026-06-18T17:27:05.234688,15.42651565,.0007152,97.3165,234.1973,108.2762,251.9265,0,U,55009,999,19246,.26788E-3,.11596E-3,0
BRO-8,2023-001C,2026-06-18T17:27:47.810016,15.49139170,.0006804,97.3210,234.9336,120.1540,240.0386,0,U,55011,999,19244,.47842E-3,.25991E-3,0
CONNECTA T1.2,2023-001D,2026-06-18T11:04:25.747104,15.50804376,.0006541,97.3265,240.1748,99.1912,261.0080,0,U,55012,999,19274,.54899E-3,.31662E-3,0
BIRKELAND,2023-001G,2026-06-18T16:56:26.607264,15.40097325,.0008359,97.3342,237.6797,101.0793,259.1393,0,U,55015,999,19258,.17415E-3,.6893E-4,0
ION SCV-008,2023-001AU,2026-06-18T17:50:43.761984,15.28591070,.0014866,97.5713,266.0875,13.1741,346.9883,0,U,55051,999,19157,.18193E-3,.4996E-4,0
ION SCV-007,2023-001BD,2026-06-18T16:30:26.098848,14.77554631,.0011681,97.9007,232.6730,337.1059,22.9629,0,U,55060,999,18647,.51889E-4,.32E-5,0
HUYGENS,2023-001CN,2026-06-18T16:56:33.992736,15.40097870,.0011025,97.3247,236.9075,81.7760,278.4736,0,U,55093,999,19260,.17478E-3,.6925E-4,0
SHARJAHSAT-1,2023-001CZ,2026-06-18T17:27:57.002976,15.49113355,.0006971,97.3168,238.5149,98.9378,261.2663,0,U,55104,999,19273,.31369E-3,.16976E-3,0
HORUS 1,2023-025A,2026-06-18T17:30:25.636032,15.23275194,.000146,97.3460,244.2930,148.9248,211.2076,0,U,55690,999,18428,.18199E-3,.4244E-4,0
