CENTISPACE-1 S4         
1 53758U 22108B   26169.62765544  .00000497  00000+0  13612-3 0  9999
2 53758  53.5314  46.8136 0008652 347.4143  12.6615 14.61935935201770
BLUEWALKER-3            
1 53807U 22111AL  26169.02439575  .00006086  00000+0  16912-3 0  9990
2 53807  53.2296  30.0410 0006260 163.4096 196.7116 15.38281356210335
YUNHAI-1 03             
1 53877U 22115A   26169.72387517  .00000286  00000+0  12113-3 0  9991
2 53877  98.5532 167.8515 0005721  52.0404 308.1296 14.32719155195739
CENTISPACE-1 S5         
1 54020U 22126A   26169.65509248  .00000348  00000+0  10410-3 0  9990
2 54020  54.9975 207.0862 0014624  75.1319 285.1294 14.63015788197258
CENTISPACE-1 S6         
1 54021U 22126B   26169.64899243  .00000141  00000+0  64945-4 0  9991
2 54021  54.9978 208.9826 0016469  75.2959 284.9858 14.62291583197219
OTB-3-GAZELLE           
1 54023U 22127A   26169.44691175  .00000110  00000+0  46091-4 0  9994
2 54023  98.3943 161.1320 0013076 179.2898 180.8313 14.42674885194543
ASO-S                   
1 54029U 22129A   26169.70088400  .00000147  00000+0  47371-4 0  9994
2 54029  98.2747 174.7597 0015773  88.4775 271.8227 14.52062358195641
HJ-2E                   
1 54035U 22132A   26169.73104146  .00006380  00000+0  27818-3 0  9992
2 54035  97.3795 174.0796 0020296   9.8892 350.2739 15.22334779204657
COSMOS 2561             
1 54109U 22137A   26169.77424574  .00010915  00000+0  18424-3 0  9995
2 54109  96.9170 228.7160 0010447  30.9625 329.2242 15.51735174206595
GONETS-M 23             
1 54150U 22139A   26169.71171333  .00000014  00000+0  31072-4 0  9993
2 54150  82.5072 347.3467 0020958 216.2259 143.7403 12.42890867165838
GONETS-M 24             
1 54151U 22139B   26169.68480363  .00000022  00000+0  84699-4 0  9998
2 54151  82.4989 346.4222 0016056 226.5486 133.4258 12.42891510165834
GONETS-M 25             
1 54152U 22139C   26169.75168919  .00000004  00000+0 -39573-4 0  9999
2 54152  82.5054 347.0678 0019984 225.2323 134.7131 12.42890011165840
SKIF-D                  
1 54153U 22139D   26169.25608484  .00000012  00000+0  00000+0 0  9997
2 54153  89.9507  96.6675 0007383 198.8114 161.2131  5.00427453 64162
MATS                    
1 54227U 22147A   26169.04601161  .00001944  00000+0  13991-3 0  9992
2 54227  97.6816 170.6392 0012158 188.4466 171.6558 15.05357387197892
JILIN-1 GAOFEN 03D54    
1 54254U 22155D   26168.08734449  .00354208  54093-4  75735-3 0  9994
2 54254  97.6131 321.1856 0005892 262.8455  97.2152 15.98577285200286
EOS-6 (OCEANSAT-3)      
1 54361U 22158A   26169.75313602  .00000222  00000+0  73105-4 0  9993
2 54361  98.3542 267.9265 0001141  48.2594 311.8696 14.47001296188069
DONGPO 09               
1 54685U 22167D   26169.71262020  .00009271  00000+0  26380-3 0  9990
2 54685  97.6904 340.7869 0003578 113.1428 247.0193 15.36362878195689
DONGPO 08               
1 54686U 22167E   26169.69577266  .00008561  00000+0  26524-3 0  9990
2 54686  97.6868 337.9402 0008775 155.4948 204.6713 15.33670810195558
2022-167F               
1 54687U 22167F   26169.78012999  .00213818  19516-4  60663-3 0  9990
2 54687  97.6098 357.8978 0001870 232.4100 127.7005 15.93379105197086
DONGPO 10               
1 54689U 22167H   26169.70162116  .00008764  00000+0  26477-3 0  9991
2 54689  97.6949 339.9014 0006320 105.9174 254.2765 15.34479540195597
JILIN-1 GAOFEN 03D48    
1 54695U 22167P   26169.69857397  .00009163  00000+0  26999-3 0  9991
2 54695  97.6884 339.2766 0007667 110.4942 249.7124 15.35247789195629
STAR VIBE               
1 55009U 23001A   26169.72714392  .00011596  00000+0  26788-3 0  9999
2 55009  97.3165 234.1973 0007152 108.2762 251.9265 15.42651565192464
BRO-8                   
1 55011U 23001C   26169.72763669  .00025991  00000+0  47842-3 0  9991
2 55011  97.3210 234.9336 0006804 120.1540 240.0386 15.49139170192440
CONNECTA T1.2           
1 55012U 23001D   26169.46140911  .00031662  00000+0  54899-3 0  9994
2 55012  97.3265 240.1748 0006541  99.1912 261.0080 15.50804376192749
BIRKELAND               
1 55015U 23001G   26169.70586351  .00006893  00000+0  17415-3 0  9997
2 55015  97.3342 237.6797 0008359 101.0793 259.1393 15.40097325192586
ION SCV-008             
1 55051U 23001AU  26169.74356206  .00004996  00000+0  18193-3 0  9991
2 55051  97.5713 266.0875 0014866  13.1741 346.9883 15.28591070191578
ION SCV-007             
1 55060U 23001BD  26169.68780207  .00000320  00000+0  51889-4 0  9993
2 55060  97.9007 232.6730 0011681 337.1059  22.9629 14.77554631186477
HUYGENS                 
1 55093U 23001CN  26169.70594899  .00006925  00000+0  17478-3 0  9994
2 55093  97.3247 236.9075 0011025  81.7760 278.4736 15.40097870192602
SHARJAHSAT-1            
1 55104U 23001CZ  26169.72774309  .00016976  00000+0  31369-3 0  9997
2 55104  97.3168 238.5149 0006971  98.9378 261.2663 15.49113355192735
HORUS 1                 
1 55690U 23025A   26169.72946338  .00004244  00000+0  18199-3 0  9997
2 55690  97.3460 244.2930 0001460 148.9248 211.2076 15.23275194184288
